NORAD_CAT_ID,OBJECT_NAME,OBJECT_TYPE,EPOCH,MEAN_MOTION,ECCENTRICITY,INCLINATION,RA_OF_ASC_NODE,ARG_OF_PERICENTER,MEAN_ANOMALY,BSTAR,MEAN_MOTION_DOT,MEAN_MOTION_DDOT,TLE_LINE0,TLE_LINE1,TLE_LINE2,SEMIMAJOR_AXIS,PERIOD,APOGEE,PERIGEE,DECAYED
53425.0,STARLINK-4531,PAYLOAD,2023-03-22 21:48:51,15.08845117,0.0001334,53.215,294.9127,80.5482,279.5661,0.00016312,2.309e-05,0.0,0 STARLINK-4531,1 53425U 22097AP  23081.90893460  .00002309  00000-0  16312-3 0  9992,2 53425  53.2150 294.9127 0001334  80.5482 279.5661 15.08845117 35159,6917.865,95.437,540.653,538.807,0.0
53425.0,STARLINK-4531,PAYLOAD,2023-03-22 23:24:15,15.08846887,0.0001351,53.2151,294.6141,81.2209,278.8936,0.0001897,2.733e-05,0.0,0 STARLINK-4531,1 53425U 22097AP  23081.97517370  .00002733  00000-0  18970-3 0  9995,2 53425  53.2151 294.6141 0001351  81.2209 278.8936 15.08846887 35160,6917.859,95.437,540.659,538.79,0.0
53425.0,STARLINK-4531,PAYLOAD,2023-03-23 20:04:16,15.08841512,0.0001246,53.2146,290.7469,102.9897,257.1235,0.00012708,1.735e-05,0.0,0 STARLINK-4531,1 53425U 22097AP  23082.83629749  .00001735  00000-0  12708-3 0  9999,2 53425  53.2146 290.7469 0001246 102.9897 257.1235 15.08841512 34847,6917.876,95.437,540.603,538.879,0.0
53425.0,STARLINK-4531,PAYLOAD,2023-03-23 23:15:02,15.08845856,0.0001382,53.2156,290.1512,102.3258,257.7889,0.00021804,3.184e-05,0.0,0 STARLINK-4531,1 53425U 22097AP  23082.96877585  .00003184  00000-0  21804-3 0  9993,2 53425  53.2156 290.1512 0001382 102.3258 257.7889 15.08845856 35316,6917.862,95.437,540.684,538.771,0.0
53425.0,STARLINK-4531,PAYLOAD,2023-03-24 19:55:01,15.08881635,0.0001189,53.2143,286.2881,90.4891,269.6237,0.0010371,0.00016275,0.0,0 STARLINK-4531,1 53425U 22097AP  23083.82988167  .00016275  00000-0  10371-2 0  9999,2 53425  53.2143 286.2881 0001189  90.4891 269.6237 15.08881635 34999,6917.753,95.435,540.441,538.796,0.0
53425.0,STARLINK-4531,PAYLOAD,2023-03-25 19:45:51,15.08795374,0.0001369,53.2145,281.8302,53.8285,306.2833,-0.00067317,-0.00010972,0.0,0 STARLINK-4531,1 53425U 22097AP  23084.82350774 -.00010972  00000-0 -67317-3 0  9990,2 53425  53.2145 281.8302 0001369  53.8285 306.2833 15.08795374 35142,6918.017,95.44,540.829,538.935,0.0
53425.0,STARLINK-4531,PAYLOAD,2023-03-26 19:36:38,15.0883799,0.0001561,53.2145,277.3677,53.2189,306.8946,0.00072659,0.00011294,0.0,0 STARLINK-4531,1 53425U 22097AP  23085.81711190  .00011294  00000-0  72659-3 0  9994,2 53425  53.2145 277.3677 0001561  53.2189 306.8946 15.08837990 35296,6917.887,95.438,540.831,538.672,0.0
53425.0,STARLINK-4531,PAYLOAD,2023-03-27 13:05:53,15.0885016,0.0001585,53.2146,274.0964,54.4447,305.6693,0.00064051,9.923e-05,0.0,0 STARLINK-4531,1 53425U 22097AP  23086.54575318  .00009923  00000-0  64051-3 0  9998,2 53425  53.2146 274.0964 0001585  54.4447 305.6693 15.08850160 35858,6917.849,95.437,540.811,538.618,0.0
53425.0,STARLINK-4531,PAYLOAD,2023-03-27 19:27:25,15.08861577,0.0001456,53.2145,272.9082,53.1404,306.9722,0.00079617,0.00012413,0.0,0 STARLINK-4531,1 53425U 22097AP  23086.81070823  .00012413  00000-0  79617-3 0  9991,2 53425  53.2145 272.9082 0001456  53.1404 306.9722 15.08861577 35896,6917.814,95.436,540.687,538.672,0.0
53425.0,STARLINK-4531,PAYLOAD,2023-03-28 04:59:43,15.08856445,0.0001309,53.2157,271.127,63.7088,296.4038,0.00015003,2.102e-05,0.0,0 STARLINK-4531,1 53425U 22097AP  23087.20814322  .00002102  00000-0  15003-3 0  9998,2 53425  53.2157 271.1270 0001309  63.7088 296.4038 15.08856445 35500,6917.83,95.437,540.601,538.79,0.0
53425.0,STARLINK-4531,PAYLOAD,2023-03-28 12:56:39,15.08845241,0.0001486,53.2144,269.6359,59.1067,301.0071,-0.00017166,-3.019e-05,0.0,0 STARLINK-4531,1 53425U 22097AP  23087.53934318 -.00003019  00000-0 -17166-3 0  9994,2 53425  53.2144 269.6359 0001486  59.1067 301.0071 15.08845241 36006,6917.864,95.437,540.757,538.701,0.0
53425.0,STARLINK-4531,PAYLOAD,2023-03-28 19:18:11,15.08854071,0.000134,53.2159,268.4487,65.903,294.2102,-7.2197e-06,-4.03e-06,0.0,0 STARLINK-4531,1 53425U 22097AP  23087.80429964 -.00000403  00000-0 -72197-5 0  9991,2 53425  53.2159 268.4487 0001340  65.9030 294.2102 15.08854071 36048,6917.837,95.437,540.629,538.775,0.0
53425.0,STARLINK-4531,PAYLOAD,2023-03-29 04:50:30,15.08847979,0.0001182,53.215,266.664,62.6201,297.4911,-3.5327e-05,-8.5e-06,0.0,0 STARLINK-4531,1 53425U 22097AP  23088.20173878 -.00000850  00000-0 -35327-4 0  9995,2 53425  53.2150 266.6640 0001182  62.6201 297.4911 15.08847979 35656,6917.856,95.437,540.539,538.903,0.0
53425.0,STARLINK-4531,PAYLOAD,2023-03-29 19:08:58,15.08846244,0.0001337,53.2156,263.988,58.8813,301.231,1.3196e-05,-7.8e-07,0.0,0 STARLINK-4531,1 53425U 22097AP  23088.79790055 -.00000078  00000-0  13196-4 0  9992,2 53425  53.2156 263.9880 0001337  58.8813 301.2310 15.08846244 36197,6917.861,95.437,540.651,538.801,0.0
53425.0,STARLINK-4531,PAYLOAD,2023-03-30 04:41:17,15.08838007,0.0001156,53.2151,262.2053,73.216,286.8959,-3.5989e-05,-8.61e-06,0.0,0 STARLINK-4531,1 53425U 22097AP  23089.19534283 -.00000861  00000-0 -35989-4 0  9991,2 53425  53.2151 262.2053 0001156  73.2160 286.8959 15.08838007 35803,6917.886,95.438,540.551,538.952,0.0
53425.0,STARLINK-4531,PAYLOAD,2023-03-30 18:59:45,15.08844164,0.0001337,53.2155,259.5272,71.9896,288.1241,0.00012399,1.686e-05,0.0,0 STARLINK-4531,1 53425U 22097AP  23089.79150242  .00001686  00000-0  12399-3 0  9999,2 53425  53.2155 259.5272 0001337  71.9896 288.1241 15.08844164 36341,6917.868,95.437,540.658,538.808,0.0
53425.0,STARLINK-4531,PAYLOAD,2023-03-31 10:53:37,15.08839146,0.0001234,53.2152,256.553,74.3308,285.7821,0.0001198,1.619e-05,0.0,0 STARLINK-4531,1 53425U 22097AP  23090.45390478  .00001619  00000-0  11980-3 0  9992,2 53425  53.2152 256.5530 0001234  74.3308 285.7821 15.08839146 35994,6917.883,95.438,540.602,538.894,0.0
53425.0,STARLINK-4531,PAYLOAD,2023-03-31 20:25:55,15.08853571,0.0001179,53.2138,254.767,82.743,277.3696,0.00033736,5.087e-05,0.0,0 STARLINK-4531,1 53425U 22097AP  23090.85133827  .00005087  00000-0  33736-3 0  9995,2 53425  53.2138 254.7670 0001179  82.7430 277.3696 15.08853571 36053,6917.839,95.437,540.52,538.888,0.0
53425.0,STARLINK-4531,PAYLOAD,2023-04-01 04:22:51,15.0884035,0.0001174,53.2153,253.2832,66.8874,293.2242,6.7227e-05,7.82e-06,0.0,0 STARLINK-4531,1 53425U 22097AP  23091.18254307  .00000782  00000-0  67227-4 0  9999,2 53425  53.2153 253.2832 0001174  66.8874 293.2242 15.08840350 36105,6917.879,95.438,540.556,538.932,0.0
53425.0,STARLINK-4531,PAYLOAD,2023-04-01 10:44:24,15.08836015,0.0001496,53.2144,252.0932,83.3135,276.8027,7.6715e-05,9.33e-06,0.0,0 STARLINK-4531,1 53425U 22097AP  23091.44750765  .00000933  00000-0  76715-4 0  9997,2 53425  53.2144 252.0932 0001496  83.3135 276.8027 15.08836015 36598,6917.893,95.438,540.792,538.723,0.0
53425.0,STARLINK-4531,PAYLOAD,2023-04-01 17:05:57,15.08836891,0.0001336,53.2155,250.9034,91.7401,268.3744,8.5395e-05,1.071e-05,0.0,0 STARLINK-4531,1 53425U 22097AP  23091.71246692  .00001071  00000-0  85395-4 0  9994,2 53425  53.2155 250.9034 0001336  91.7401 268.3744 15.08836891 36631,6917.89,95.438,540.679,538.831,0.0
53425.0,STARLINK-4531,PAYLOAD,2023-04-02 13:45:58,15.08843039,0.0001226,53.2151,247.0369,93.1236,266.9896,0.00031277,4.694e-05,0.0,0 STARLINK-4531,1 53425U 22097AP  23092.57358927  .00004694  00000-0  31277-3 0  9997,2 53425  53.2151 247.0369 0001226  93.1236 266.9896 15.08843039 36763,6917.871,95.437,540.584,538.888,0.0
53425.0,STARLINK-4531,PAYLOAD,2023-04-02 20:07:30,15.08854349,0.0001254,53.2146,245.8465,87.7159,272.3977,0.0007874,0.00012271,0.0,0 STARLINK-4531,1 53425U 22097AP  23092.83854736  .00012271  00000-0  78740-3 0  9991,2 53425  53.2146 245.8465 0001254  87.7159 272.3977 15.08854349 36356,6917.837,95.437,540.569,538.834,0.0
53425.0,STARLINK-4531,PAYLOAD,2023-04-03 10:25:58,15.08841135,0.0001066,53.2151,243.1711,87.3216,272.7898,0.00016484,2.337e-05,0.0,0 STARLINK-4531,1 53425U 22097AP  23093.43470997  .00002337  00000-0  16484-3 0  9990,2 53425  53.2151 243.1711 0001066  87.3216 272.7898 15.08841135 36443,6917.877,95.437,540.479,539.004,0.0
53425.0,STARLINK-4531,PAYLOAD,2023-04-03 18:22:54,15.08852804,0.0001425,53.2153,241.6848,93.7836,266.3319,0.00056177,8.667e-05,0.0,0 STARLINK-4531,1 53425U 22097AP  23093.76590731  .00008667  00000-0  56177-3 0  9990,2 53425  53.2153 241.6848 0001425  93.7836 266.3319 15.08852804 36944,6917.841,95.437,540.692,538.72,0.0
53425.0,STARLINK-4531,PAYLOAD,2023-04-04 10:16:45,15.08842439,0.0001172,53.2143,238.7112,89.9755,270.1371,5.4576e-05,5.81e-06,0.0,0 STARLINK-4531,1 53425U 22097AP  23094.42830839  .00000581  00000-0  54576-4 0  9999,2 53425  53.2143 238.7112 0001172  89.9755 270.1371 15.08842439 37046,6917.873,95.437,540.549,538.927,0.0
53425.0,STARLINK-4531,PAYLOAD,2023-04-04 19:49:04,15.08850814,0.0001681,53.2154,236.925,105.5966,254.5212,0.00018113,2.597e-05,0.0,0 STARLINK-4531,1 53425U 22097AP  23094.82574294  .00002597  00000-0  18113-3 0  9998,2 53425  53.2154 236.9250 0001681 105.5966 254.5212 15.08850814 36657,6917.847,95.437,540.875,538.549,0.0
53425.0,STARLINK-4531,PAYLOAD,2023-04-05 13:18:19,15.08830111,0.000135,53.2129,233.6538,93.0439,267.0707,-0.00015779,-2.798e-05,0.0,0 STARLINK-4531,1 53425U 22097AP  23095.55439286 -.00002798  00000-0 -15779-3 0  9990,2 53425  53.2129 233.6538 0001350  93.0439 267.0707 15.08830111 37210,6917.911,95.438,540.71,538.842,0.0
53425.0,STARLINK-4531,PAYLOAD,2023-04-05 14:53:42,15.0883162,0.0001366,53.2136,233.3568,93.0305,267.0844,-0.0001029,-1.925e-05,0.0,0 STARLINK-4531,1 53425U 22097AP  23095.62063442 -.00001925  00000-0 -10290-3 0  9999,2 53425  53.2136 233.3568 0001366  93.0305 267.0844 15.08831620 36775,6917.906,95.438,540.716,538.826,0.0
53425.0,STARLINK-4531,PAYLOAD,2023-04-05 16:29:05,15.0883213,0.0001162,53.2151,233.0605,83.2982,276.8142,-9.2562e-05,-1.76e-05,0.0,0 STARLINK-4531,1 53425U 22097AP  23095.68687454 -.00001760  00000-0 -92562-4 0  9990,2 53425  53.2151 233.0605 0001162  83.2982 276.8142 15.08832130 37235,6917.904,95.438,540.573,538.966,0.0
